[{"OBJECT_NAME":"ONEWEB-0269","OBJECT_ID":"2021-060W","EPOCH":"2026-03-09T21:56:15.563328","MEAN_MOTION":13.16592945,"ECCENTRICITY":0.00014435,"INCLINATION":87.8994,"RA_OF_ASC_NODE":248.5392,"ARG_OF_PERICENTER":91.3563,"MEAN_ANOMALY":268.7733,"EPHEMERIS_TYPE":0,"CLASSIFICATION_TYPE":"U","NORAD_CAT_ID":48987,"ELEMENT_SET_NO":999,"REV_AT_EPOCH":22656,"BSTAR":-0.0004078972,"MEAN_MOTION_DOT":-1.43e-6,"MEAN_MOTION_DDOT":0},{"OBJECT_NAME":"SL-14 R\/B","OBJECT_ID":"1988-064B","EPOCH":"2026-03-09T22:26:58.344864","MEAN_MOTION":13.17272582,"ECCENTRICITY":0.00165949,"INCLINATION":82.5463,"RA_OF_ASC_NODE":44.0722,"ARG_OF_PERICENTER":124.4622,"MEAN_ANOMALY":289.5659,"EPHEMERIS_TYPE":0,"CLASSIFICATION_TYPE":"U","NORAD_CAT_ID":19337,"ELEMENT_SET_NO":999,"REV_AT_EPOCH":80867,"BSTAR":0.00033527684,"MEAN_MOTION_DOT":1.42e-6,"MEAN_MOTION_DDOT":0}]
